ONEWEB-0385             
1 49311U 21090AJ  22080.91667824  .00019281  00000+0  19381-2 0  9999
2 49311  87.1974 237.1921 0006038 100.4995 327.4578 14.91138156  3565
ONEWEB-0386             
1 49312U 21090AK  22080.91667824  .00015964  00000+0  16037-2 0  9999
2 49312  87.2061 237.3667 0004290  78.9836 248.4044 14.91177107  3552
ONEWEB-0387             
1 49313U 21090AL  22080.91667824  .00020805  00000+0  20902-2 0  9996
2 49313  87.2060 237.3622 0004969 103.1782  87.0612 14.91157583  3562
ONEWEB-0388             
1 49314U 21090AM  22080.91667824  .00034739  00000+0  86424-1 0  9998
2 49314  87.9132 252.6442 0001675  92.0247 225.0436 13.19713499  3294
ONEWEB-0389             
1 50469U 21132A   22080.91667824 -.00015554  00000+0 -15346-2 0  9990
2 50469  87.2209 326.3412 0003210  30.1215 104.4355 14.92225387 13990
ONEWEB-0390             
1 50470U 21132B   22080.91667824 -.00018275  00000+0 -18026-2 0  9993
2 50470  87.2251 326.3784 0004324  53.7428 243.3923 14.92237508 13997
ONEWEB-0391             
1 50471U 21132C   22080.91667824  .00053514  00000+0  52145-2 0  9997
2 50471  87.2189 326.3203 0003884  51.4401 171.8834 14.92228634 13996
ONEWEB-0392             
1 50472U 21132D   22080.91667824 -.00014282  00000+0 -14089-2 0  9994
2 50472  87.2240 326.3699 0001994  21.2760 357.8395 14.92233366  3554
ONEWEB-0393             
1 50473U 21132E   22080.91667824 -.00017107  00000+0 -16868-2 0  9991
2 50473  87.2226 326.3468 0002860  26.2353 291.9161 14.92251185  3546
ONEWEB-0394             
1 50474U 21132F   22080.91667824 -.00013832  00000+0 -13643-2 0  9991
2 50474  87.2257 326.3960 0004345  65.0486 336.2523 14.92232643 13977
ONEWEB-0395             
1 50475U 21132G   22080.91667824 -.00972864  00000+0 -57103+0 0  9997
2 50475  87.6868 329.6358 0017654  14.1837  58.0878 14.11304825 13761
ONEWEB-0396             
1 50476U 21132H   22080.91667824 -.00016942  00000+0 -16717-2 0  9993
2 50476  87.2288 326.4272 0002002 354.2416 175.0364 14.92224733 13977
ONEWEB-0397             
1 50477U 21132J   22080.91667824 -.00015009  00000+0 -14800-2 0  9998
2 50477  87.2300 326.4302 0004064  49.6440 315.3852 14.92244532  3552
ONEWEB-0398             
1 50478U 21132K   22080.91667824 -.00977607  00000+0 -60156+0 0  9992
2 50478  87.6826 329.6456 0021798  16.4939 247.1047 14.08692849 13759
ONEWEB-0399             
1 50479U 21132L   22080.91667824 -.00949390  00000+0 -60184+0 0  9992
2 50479  87.6729 329.5977 0021002  17.4430 222.9583 14.06968935 13749
ONEWEB-0400             
1 50480U 21132M   22080.91667824 -.00018492  00000+0 -18225-2 0  9996
2 50480  87.2243 326.3587 0002856  47.2952 236.0049 14.92274571 14000
ONEWEB-0401             
1 50481U 21132N   22080.91667824 -.00016656  00000+0 -16441-2 0  9995
2 50481  87.2269 326.3994 0003995  64.3282  96.5794 14.92204440 13982
ONEWEB-0402             
1 50482U 21132P   22080.91667824 -.00018503  00000+0 -18242-2 0  9990
2 50482  87.2272 326.4035 0004067  58.7745 228.0686 14.92256937  3558
ONEWEB-0403             
1 50483U 21132Q   22080.91667824 -.00015204  00000+0 -14989-2 0  9990
2 50483  87.2248 326.3780 0003445  85.8479 271.9802 14.92254389  3569
ONEWEB-0404             
1 50484U 21132R   22080.91667824 -.00941019  00000+0 -57970+0 0  9997
2 50484  87.6750 329.5989 0021507  13.4859  13.0938 14.08513250  3440
ONEWEB-0405             
1 50485U 21132S   22080.91667824 -.00020227  00000+0 -19981-2 0  9990
2 50485  87.3021 326.8748 0001298  26.6623 247.3030 14.92189917  3551
ONEWEB-0406             
1 50486U 21132T   22080.91667824 -.00017725  00000+0 -17472-2 0  9993
2 50486  87.2291 326.4193 0002524 356.6386 192.5751 14.92265261 13981
ONEWEB-0407             
1 50487U 21132U   22080.91667824 -.00013835  00000+0 -13651-2 0  9997
2 50487  87.2212 326.3399 0001015 348.7645  94.3052 14.92225752 13991
ONEWEB-0409             
1 50488U 21132V   22080.91667824 -.00983491  00000+0 -61568+0 0  9999
2 50488  87.6851 329.6273 0022037  18.4042 224.4433 14.07762898  3453
ONEWEB-0412             
1 50489U 21132W   22080.91667824 -.00018362  00000+0 -18104-2 0  9997
2 50489  87.2257 326.3964 0002748  40.8626 251.6725 14.92257566  3557
ONEWEB-0413             
1 50490U 21132X   22080.91667824 -.00014555  00000+0 -14341-2 0  9998
2 50490  87.2200 326.3137 0004777  56.3261 315.8092 14.92272410 14007
ONEWEB-0414             
1 50491U 21132Y   22080.91667824 -.00013626  00000+0 -13437-2 0  9992
2 50491  87.2242 326.3740 0001818 344.7003  75.4336 14.92245776 13997
ONEWEB-0417             
1 50492U 21132Z   22080.91667824 -.00015593  00000+0 -15453-2 0  9998
2 50492  87.2273 326.4072 0001850 352.1261 137.9415 14.92049320 13984
ONEWEB-0418             
1 50493U 21132AA  22080.91667824 -.00014749  00000+0 -14547-2 0  9994
2 50493  87.2309 326.4515 0004425  34.9409 337.1163 14.92233880  3559
ONEWEB-0419             
1 50494U 21132AB  22080.91667824 -.00018393  00000+0 -18161-2 0  9990
2 50494  87.2187 326.3199 0001399 339.6853 242.2322 14.92201867  3548
ONEWEB-0420             
1 50495U 21132AC  22080.91667824 -.00018019  00000+0 -17765-2 0  9995
2 50495  87.2131 326.2579 0004688  60.7661 151.5557 14.92254724 14018
ONEWEB-0421             
1 50496U 21132AD  22080.91667824 -.00018338  00000+0 -18084-2 0  9995
2 50496  87.2169 326.2866 0004593  77.3355  37.7415 14.92245452 14014
ONEWEB-0424             
1 50497U 21132AE  22080.91667824 -.00014650  00000+0 -14459-2 0  9991
2 50497  87.2339 326.4711 0002208  25.0942 347.3044 14.92213758  3568
ONEWEB-0426             
1 50498U 21132AF  22080.91667824 -.00014647  00000+0 -14444-2 0  9992
2 50498  87.2212 326.3362 0002286  70.1857 295.7424 14.92246852  3550
ONEWEB-0427             
1 50499U 21132AG  22080.91667824 -.00017336  00000+0 -17084-2 0  9994
2 50499  87.2142 326.2712 0000805  88.4523 135.4306 14.92279406 14011
ONEWEB-0429             
1 50500U 21132AH  22080.91667824 -.00014597  00000+0 -14391-2 0  9991
2 50500  87.2181 326.2892 0004635  67.6986 299.1262 14.92248776  3555
ONEWEB-0430             
1 50501U 21132AJ  22080.91667824 -.00018696  00000+0 -18440-2 0  9995
2 50501  87.2313 326.4556 0001921  22.7963 254.8959 14.92247050  3548
ONEWEB-0432             
1 50502U 21132AK  22080.91667824 -.00018183  00000+0 -17927-2 0  9996
2 50502  87.2161 326.2911 0005154  49.7732 161.3936 14.92251848 14019
ONEWEB-0440             
1 50503U 21132AL  22080.91667824 -.00018462  00000+0 -18200-2 0  9992
2 50503  87.2199 326.3152 0004200  62.8783 225.7210 14.92261081  3559
ONEWEB-0450             
1 50504U 21132AM  22080.91667824 -.00015898  00000+0 -15691-2 0  9994
2 50504  87.2294 326.4277 0002525  38.3422 106.5219 14.92211709 13986
ONEWEB-0410             
1 51622U 22012A   22080.91667824 -.00048554  00000+0 -46428-2 0  9991
2 51622  87.1913 347.8582 0018075 103.9388  14.9886 14.93479435  3588
ONEWEB-0411             
1 51623U 22012B   22080.91667824 -.01053801  00000+0 -16286+0 0  9990
2 51623  87.4264 348.3928 0019140 110.5219  42.9973 14.76169323  7183
ONEWEB-0415             
1 51624U 22012C   22080.91667824 -.01050093  00000+0 -15930+0 0  9996
2 51624  87.4357 348.3889 0019512 111.0974 118.4939 14.76942041  3576
ONEWEB-0416             
1 51625U 22012D   22080.91667824 -.01031370  00000+0 -14410+0 0  9996
2 51625  87.4505 348.3545 0017466 108.9638 201.0662 14.80874670  3590
ONEWEB-0422             
1 51626U 22012E   22080.91667824 -.00048423  00000+0 -46236-2 0  9997
2 51626  87.2469 348.0131 0019143 107.8285 209.6411 14.93519514  3588
ONEWEB-0423             
1 51627U 22012F   22080.91667824 -.00048653  00000+0 -46478-2 0  9991
2 51627  87.1925 347.8684 0020172 100.6898  14.7301 14.93485473  3589
ONEWEB-0425             
1 51628U 22012G   22080.91667824 -.01022324  00000+0 -14587+0 0  9993
2 51628  87.4431 348.3787 0017583  97.6741 343.3123 14.79966762  3570
ONEWEB-0428             
1 51629U 22012H   22080.91667824 -.01049217  00000+0 -16316+0 0  9996
2 51629  87.4248 348.3949 0018333 111.8135 355.7547 14.75906384  3585
ONEWEB-0431             
1 51630U 22012J   22080.91667824 -.01014523  00000+0 -14238+0 0  9991
2 51630  87.4457 348.3687 0018238 101.5181  12.0041 14.80622737  3573
ONEWEB-0434             
1 51631U 22012K   22080.91667824 -.01024802  00000+0 -14812+0 0  9991
2 51631  87.4458 348.3800 0016789  96.3563  18.5880 14.79447967  3587
ONEWEB-0435             
1 51632U 22012L   22080.91667824 -.01054522  00000+0 -15888+0 0  9998
2 51632  87.4320 348.3954 0019142 109.7118 159.2769 14.77250695  3584
ONEWEB-0436             
1 51633U 22012M   22080.91667824 -.00051101  00000+0 -48831-2 0  9995
2 51633  87.1884 347.8544 0018373  95.4370 135.3568 14.93514415  3585
ONEWEB-0438             
1 51634U 22012N   22080.91667824 -.01031809  00000+0 -14304+0 0  9995
2 51634  87.4452 348.3647 0020315 108.2825 161.6488 14.81150101  3596
ONEWEB-0439             
1 51635U 22012P   22080.91667824 -.01027352  00000+0 -14754+0 0  9993
2 51635  87.4449 348.3669 0016840  97.5689  42.1564 14.79723778  7206
ONEWEB-0442             
1 51636U 22012Q   22080.91667824 -.00049675  00000+0 -47480-2 0  9990
2 51636  87.1860 347.8400 0017111  96.7470 193.6289 14.93514999  3592
ONEWEB-0443             
1 51637U 22012R   22080.91667824 -.00051359  00000+0 -49023-2 0  9998
2 51637  87.1884 347.8551 0018696  98.3202 130.2493 14.93554632  3598
ONEWEB-0444             
1 51638U 22012S   22080.91667824 -.01017681  00000+0 -14023+0 0  9999
2 51638  87.4597 348.3650 0017608 111.5554 245.8696 14.81406477  3597
ONEWEB-0445             
1 51639U 22012T   22080.91667824 -.01010394  00000+0 -14036+0 0  9998
2 51639  87.4534 348.3603 0017232  99.9668 134.7151 14.81052476  3571
ONEWEB-0446             
1 51640U 22012U   22080.91667824 -.01028781  00000+0 -14412+0 0  9997
2 51640  87.4496 348.3613 0017465 108.1159 186.1184 14.80756008  3586
